[
    {
        "CCSDS_OMM_VERS": "2.0",
        "COMMENT": "GENERATED VIA SPACE-TRACK.ORG API",
        "CREATION_DATE": "2023-07-11T06:26:13",
        "ORIGINATOR": "18 SPCS",
        "OBJECT_NAME": "ECHO 1 DEB (METAL OBJ)",
        "OBJECT_ID": "1960-009E",
        "CENTER_NAME": "EARTH",
        "REF_FRAME": "TEME",
        "TIME_SYSTEM": "UTC",
        "MEAN_ELEMENT_THEORY": "SGP4",
        "EPOCH": "2023-07-10T23:32:06.596160",
        "MEAN_MOTION": "12.17306086",
        "ECCENTRICITY": "0.00987270",
        "INCLINATION": "47.2782",
        "RA_OF_ASC_NODE": "49.5061",
        "ARG_OF_PERICENTER": "145.6814",
        "MEAN_ANOMALY": "215.0403",
        "EPHEMERIS_TYPE": "0",
        "CLASSIFICATION_TYPE": "U",
        "NORAD_CAT_ID": "53",
        "ELEMENT_SET_NO": "999",
        "REV_AT_EPOCH": "80481",
        "BSTAR": "0.00095296000000",
        "MEAN_MOTION_DOT": "0.00000012",
        "MEAN_MOTION_DDOT": "0.0000000000000",
        "SEMIMAJOR_AXIS": "7982.434",
        "PERIOD": "118.294",
        "APOAPSIS": "1683.107",
        "PERIAPSIS": "1525.490",
        "OBJECT_TYPE": "DEBRIS",
        "RCS_SIZE": "MEDIUM",
        "COUNTRY_CODE": "US",
        "LAUNCH_DATE": "1960-08-12",
        "SITE": "AFETR",
        "DECAY_DATE": null,
        "FILE": "3954870",
        "GP_ID": "234841632",
        "TLE_LINE0": "0 ECHO 1 DEB (METAL OBJ)",
        "TLE_LINE1": "1    53U 60009E   23191.98063190  .00000012  00000-0  95296-3 0  9992",
        "TLE_LINE2": "2    53  47.2782  49.5061 0098727 145.6814 215.0403 12.17306086804817"
    },
    {
        "CCSDS_OMM_VERS": "2.0",
        "COMMENT": "GENERATED VIA SPACE-TRACK.ORG API",
        "CREATION_DATE": "2023-07-11T22:26:13",
        "ORIGINATOR": "18 SPCS",
        "OBJECT_NAME": "COURIER 1B",
        "OBJECT_ID": "1960-013A",
        "CENTER_NAME": "EARTH",
        "REF_FRAME": "TEME",
        "TIME_SYSTEM": "UTC",
        "MEAN_ELEMENT_THEORY": "SGP4",
        "EPOCH": "2023-07-11T15:10:41.541600",
        "MEAN_MOTION": "13.46354398",
        "ECCENTRICITY": "0.01648410",
        "INCLINATION": "28.3259",
        "RA_OF_ASC_NODE": "176.6573",
        "ARG_OF_PERICENTER": "335.2196",
        "MEAN_ANOMALY": "24.0506",
        "EPHEMERIS_TYPE": "0",
        "CLASSIFICATION_TYPE": "U",
        "NORAD_CAT_ID": "58",
        "ELEMENT_SET_NO": "999",
        "REV_AT_EPOCH": "9008",
        "BSTAR": "0.00003484400000",
        "MEAN_MOTION_DOT": "0.00000107",
        "MEAN_MOTION_DDOT": "0.0000000000000",
        "SEMIMAJOR_AXIS": "7463.839",
        "PERIOD": "106.955",
        "APOAPSIS": "1208.738",
        "PERIAPSIS": "962.669",
        "OBJECT_TYPE": "PAYLOAD",
        "RCS_SIZE": "LARGE",
        "COUNTRY_CODE": "US",
        "LAUNCH_DATE": "1960-10-04",
        "SITE": "AFETR",
        "DECAY_DATE": null,
        "FILE": "3955433",
        "GP_ID": "234855193",
        "TLE_LINE0": "0 COURIER 1B",
        "TLE_LINE1": "1    58U 60013A   23192.63242525  .00000107  00000-0  34844-4 0  9994",
        "TLE_LINE2": "2    58  28.3259 176.6573 0164841 335.2196  24.0506 13.46354398 90082"
    },
    {
        "CCSDS_OMM_VERS": "2.0",
        "COMMENT": "GENERATED VIA SPACE-TRACK.ORG API",
        "CREATION_DATE": "2023-07-11T22:36:12",
        "ORIGINATOR": "18 SPCS",
        "OBJECT_NAME": "THOR ABLESTAR R\/B",
        "OBJECT_ID": "1960-013B",
        "CENTER_NAME": "EARTH",
        "REF_FRAME": "TEME",
        "TIME_SYSTEM": "UTC",
        "MEAN_ELEMENT_THEORY": "SGP4",
        "EPOCH": "2023-07-11T19:54:17.125632",
        "MEAN_MOTION": "13.53034524",
        "ECCENTRICITY": "0.01891050",
        "INCLINATION": "28.2474",
        "RA_OF_ASC_NODE": "228.0514",
        "ARG_OF_PERICENTER": "321.7287",
        "MEAN_ANOMALY": "36.9970",
        "EPHEMERIS_TYPE": "0",
        "CLASSIFICATION_TYPE": "U",
        "NORAD_CAT_ID": "59",
        "ELEMENT_SET_NO": "999",
        "REV_AT_EPOCH": "9882",
        "BSTAR": "0.00006936400000",
        "MEAN_MOTION_DOT": "0.00000140",
        "MEAN_MOTION_DDOT": "0.0000000000000",
        "SEMIMAJOR_AXIS": "7439.252",
        "PERIOD": "106.427",
        "APOAPSIS": "1201.797",
        "PERIAPSIS": "920.437",
        "OBJECT_TYPE": "ROCKET BODY",
        "RCS_SIZE": "LARGE",
        "COUNTRY_CODE": "US",
        "LAUNCH_DATE": "1960-10-04",
        "SITE": "AFETR",
        "DECAY_DATE": null,
        "FILE": "3955480",
        "GP_ID": "234856570",
        "TLE_LINE0": "0 THOR ABLESTAR R\/B",
        "TLE_LINE1": "1    59U 60013B   23192.82936488  .00000140  00000-0  69364-4 0  9996",
        "TLE_LINE2": "2    59  28.2474 228.0514 0189105 321.7287  36.9970 13.53034524 98820"
    },
    {
        "CCSDS_OMM_VERS": "2.0",
        "COMMENT": "GENERATED VIA SPACE-TRACK.ORG API",
        "CREATION_DATE": "2023-07-09T14:26:19",
        "ORIGINATOR": "18 SPCS",
        "OBJECT_NAME": "SCOUT X-1 R\/B",
        "OBJECT_ID": "1961-004B",
        "CENTER_NAME": "EARTH",
        "REF_FRAME": "TEME",
        "TIME_SYSTEM": "UTC",
        "MEAN_ELEMENT_THEORY": "SGP4",
        "EPOCH": "2023-07-09T09:45:10.256544",
        "MEAN_MOTION": "12.26236134",
        "ECCENTRICITY": "0.11644140",
        "INCLINATION": "38.8549",
        "RA_OF_ASC_NODE": "22.8829",
        "ARG_OF_PERICENTER": "74.0065",
        "MEAN_ANOMALY": "298.5565",
        "EPHEMERIS_TYPE": "0",
        "CLASSIFICATION_TYPE": "U",
        "NORAD_CAT_ID": "82",
        "ELEMENT_SET_NO": "999",
        "REV_AT_EPOCH": "94490",
        "BSTAR": "0.00030438000000",
        "MEAN_MOTION_DOT": "0.00000297",
        "MEAN_MOTION_DDOT": "0.0000000000000",
        "SEMIMAJOR_AXIS": "7943.632",
        "PERIOD": "117.433",
        "APOAPSIS": "2490.464",
        "PERIAPSIS": "640.529",
        "OBJECT_TYPE": "ROCKET BODY",
        "RCS_SIZE": "MEDIUM",
        "COUNTRY_CODE": "US",
        "LAUNCH_DATE": "1961-02-16",
        "SITE": "WLPIS",
        "DECAY_DATE": null,
        "FILE": "3953515",
        "GP_ID": "234809948",
        "TLE_LINE0": "0 SCOUT X-1 R\/B",
        "TLE_LINE1": "1    82U 61004B   23190.40636871  .00000297  00000-0  30438-3 0  9990",
        "TLE_LINE2": "2    82  38.8549  22.8829 1164414  74.0065 298.5565 12.26236134944909"
    },
    {
        "CCSDS_OMM_VERS": "2.0",
        "COMMENT": "GENERATED VIA SPACE-TRACK.ORG API",
        "CREATION_DATE": "2023-07-10T22:26:13",
        "ORIGINATOR": "18 SPCS",
        "OBJECT_NAME": "SCOUT X-1 DEB",
        "OBJECT_ID": "1961-004C",
        "CENTER_NAME": "EARTH",
        "REF_FRAME": "TEME",
        "TIME_SYSTEM": "UTC",
        "MEAN_ELEMENT_THEORY": "SGP4",
        "EPOCH": "2023-07-10T17:34:00.009120",
        "MEAN_MOTION": "14.38087120",
        "ECCENTRICITY": "0.03216250",
        "INCLINATION": "38.7600",
        "RA_OF_ASC_NODE": "33.8994",
        "ARG_OF_PERICENTER": "86.4989",
        "MEAN_ANOMALY": "277.2486",
        "EPHEMERIS_TYPE": "0",
        "CLASSIFICATION_TYPE": "U",
        "NORAD_CAT_ID": "85",
        "ELEMENT_SET_NO": "999",
        "REV_AT_EPOCH": "9067",
        "BSTAR": "0.00512820000000",
        "MEAN_MOTION_DOT": "0.00028863",
        "MEAN_MOTION_DDOT": "0.0000000000000",
        "SEMIMAJOR_AXIS": "7142.963",
        "PERIOD": "100.133",
        "APOAPSIS": "994.563",
        "PERIAPSIS": "535.092",
        "OBJECT_TYPE": "DEBRIS",
        "RCS_SIZE": "SMALL",
        "COUNTRY_CODE": "US",
        "LAUNCH_DATE": "1961-02-16",
        "SITE": "WLPIS",
        "DECAY_DATE": null,
        "FILE": "3954676",
        "GP_ID": "234836566",
        "TLE_LINE0": "0 SCOUT X-1 DEB",
        "TLE_LINE1": "1    85U 61004C   23191.73194455  .00028863  00000-0  51282-2 0  9995",
        "TLE_LINE2": "2    85  38.7600  33.8994 0321625  86.4989 277.2486 14.38087120 90670"
    },
    {
        "CCSDS_OMM_VERS": "2.0",
        "COMMENT": "GENERATED VIA SPACE-TRACK.ORG API",
        "CREATION_DATE": "2023-07-12T14:46:12",
        "ORIGINATOR": "18 SPCS",
        "OBJECT_NAME": "EXPLORER 11",
        "OBJECT_ID": "1961-013A",
        "CENTER_NAME": "EARTH",
        "REF_FRAME": "TEME",
        "TIME_SYSTEM": "UTC",
        "MEAN_ELEMENT_THEORY": "SGP4",
        "EPOCH": "2023-07-12T11:25:22.885248",
        "MEAN_MOTION": "14.12488252",
        "ECCENTRICITY": "0.05326580",
        "INCLINATION": "28.7922",
        "RA_OF_ASC_NODE": "326.3639",
        "ARG_OF_PERICENTER": "279.5911",
        "MEAN_ANOMALY": "74.4892",
        "EPHEMERIS_TYPE": "0",
        "CLASSIFICATION_TYPE": "U",
        "NORAD_CAT_ID": "107",
        "ELEMENT_SET_NO": "999",
        "REV_AT_EPOCH": "12398",
        "BSTAR": "0.00026285000000",
        "MEAN_MOTION_DOT": "0.00002159",
        "MEAN_MOTION_DDOT": "0.0000000000000",
        "SEMIMAJOR_AXIS": "7229.006",
        "PERIOD": "101.948",
        "APOAPSIS": "1235.930",
        "PERIAPSIS": "465.813",
        "OBJECT_TYPE": "PAYLOAD",
        "RCS_SIZE": "MEDIUM",
        "COUNTRY_CODE": "US",
        "LAUNCH_DATE": "1961-04-27",
        "SITE": "AFETR",
        "DECAY_DATE": null,
        "FILE": "3956065",
        "GP_ID": "234870435",
        "TLE_LINE0": "0 EXPLORER 11",
        "TLE_LINE1": "1   107U 61013A   23193.47595932  .00002159  00000-0  26285-3 0  9994",
        "TLE_LINE2": "2   107  28.7922 326.3639 0532658 279.5911  74.4892 14.12488252123989"
    }]